{
  "norad_id": 68097,
  "name": "STARLINK-36853",
  "history": [
    {
      "epoch": "2026-03-27T18:10:48.142560Z",
      "apogee_km": 329.7636715146473,
      "perigee_km": 325.5490803778648,
      "latitude_deg": 2.867977208309702e-05,
      "longitude_deg": 6.111209395875013,
      "height_km": 328.05399719144725,
      "semi_major_axis_km": 6705.793375946256,
      "eccentricity": 0.00031425,
      "inclination_deg": 53.158,
      "raan_deg": 103.9995,
      "arg_perigee_deg": 75.7895,
      "mean_anomaly_deg": 284.3477,
      "mean_motion_rev_day": 15.80984131
    },
    {
      "epoch": "2026-03-28T13:54:14.999328Z",
      "apogee_km": 328.58340047124784,
      "perigee_km": 326.5078575839116,
      "latitude_deg": 3.5703267077156835e-06,
      "longitude_deg": 65.31954583178519,
      "height_km": 328.50311413646466,
      "semi_major_axis_km": 6705.682629027579,
      "eccentricity": 0.00015476,
      "inclination_deg": 53.1585,
      "raan_deg": 99.8798,
      "arg_perigee_deg": 92.2219,
      "mean_anomaly_deg": 267.8981,
      "mean_motion_rev_day": 15.81023297
    },
    {
      "epoch": "2026-03-30T22:11:28.534848Z",
      "apogee_km": 344.3360703395201,
      "perigee_km": 343.2301800405239,
      "latitude_deg": -1.4013891185841848e-05,
      "longitude_deg": -72.98249263321996,
      "height_km": 344.3803336914186,
      "semi_major_axis_km": 6721.920125190022,
      "eccentricity": 8.226e-05,
      "inclination_deg": 53.159,
      "raan_deg": 88.1958,
      "arg_perigee_deg": 54.7572,
      "mean_anomaly_deg": 305.3525,
      "mean_motion_rev_day": 15.75298069
    },
    {
      "epoch": "2026-03-31T20:00:01.999008Z",
      "apogee_km": 344.69535675193583,
      "perigee_km": 342.97587615664725,
      "latitude_deg": 46.07739439736875,
      "longitude_deg": 83.78935895253255,
      "height_km": 347.94067264863304,
      "semi_major_axis_km": 6721.972616454291,
      "eccentricity": 0.0001279,
      "inclination_deg": 53.1584,
      "raan_deg": 83.6788,
      "arg_perigee_deg": 95.9083,
      "mean_anomaly_deg": 20.2156,
      "mean_motion_rev_day": 15.75279617
    },
    {
      "epoch": "2026-04-01T20:00:01.999008Z",
      "apogee_km": 344.7987870728675,
      "perigee_km": 343.29167381680327,
      "latitude_deg": 23.936421472844184,
      "longitude_deg": -32.17947078296241,
      "height_km": 344.6773363872053,
      "semi_major_axis_km": 6722.182230444835,
      "eccentricity": 0.0001121,
      "inclination_deg": 53.1591,
      "raan_deg": 78.7081,
      "arg_perigee_deg": 102.5427,
      "mean_anomaly_deg": 287.8452,
      "mean_motion_rev_day": 15.75205936
    },
    {
      "epoch": "2026-04-02T20:00:01.999008Z",
      "apogee_km": 344.6186093120459,
      "perigee_km": 343.26209410247066,
      "latitude_deg": -41.43786594705012,
      "longitude_deg": -98.5713759791745,
      "height_km": 358.08652347752843,
      "semi_major_axis_km": 6722.077351707258,
      "eccentricity": 0.0001009,
      "inclination_deg": 53.1586,
      "raan_deg": 73.7378,
      "arg_perigee_deg": 70.0943,
      "mean_anomaly_deg": 234.4687,
      "mean_motion_rev_day": 15.75242801
    },
    {
      "epoch": "2026-04-02T22:00:01.999584Z",
      "apogee_km": 344.8004098522724,
      "perigee_km": 343.3063358200061,
      "latitude_deg": 42.54294222066205,
      "longitude_deg": -44.8100156425116,
      "height_km": 347.43539974777065,
      "semi_major_axis_km": 6722.1903728361385,
      "eccentricity": 0.00011113,
      "inclination_deg": 53.1588,
      "raan_deg": 73.3234,
      "arg_perigee_deg": 61.8659,
      "mean_anomaly_deg": 355.5547,
      "mean_motion_rev_day": 15.75203074
    },
    {
      "epoch": "2026-04-03T05:22:18.182784Z",
      "apogee_km": 344.6086110667229,
      "perigee_km": 343.1761466060925,
      "latitude_deg": -3.7868629605773764e-05,
      "longitude_deg": 159.65930074913015,
      "height_km": 344.4001572381896,
      "semi_major_axis_km": 6722.029378836408,
      "eccentricity": 0.00010655,
      "inclination_deg": 53.1593,
      "raan_deg": 71.7963,
      "arg_perigee_deg": 55.2489,
      "mean_anomaly_deg": 304.8631,
      "mean_motion_rev_day": 15.75259664
    },
    {
      "epoch": "2026-04-04T14:52:18.255936Z",
      "apogee_km": 345.4567807188814,
      "perigee_km": 341.72487742817975,
      "latitude_deg": 5.4686125340851465e-05,
      "longitude_deg": 8.847667306886349,
      "height_km": 343.231010033955,
      "semi_major_axis_km": 6721.72782907353,
      "eccentricity": 0.0002776,
      "inclination_deg": 53.159,
      "raan_deg": 64.8607,
      "arg_perigee_deg": 46.929,
      "mean_anomaly_deg": 313.1963,
      "mean_motion_rev_day": 15.75365669
    },
    {
      "epoch": "2026-04-05T09:08:39.317568Z",
      "apogee_km": 344.36254604649275,
      "perigee_km": 342.9297307527113,
      "latitude_deg": -3.9384793832402015e-06,
      "longitude_deg": 90.22544017490065,
      "height_km": 344.33457906877067,
      "semi_major_axis_km": 6721.783138399602,
      "eccentricity": 0.00010658,
      "inclination_deg": 53.1593,
      "raan_deg": 61.0767,
      "arg_perigee_deg": 71.4894,
      "mean_anomaly_deg": 288.6242,
      "mean_motion_rev_day": 15.75346225
    },
    {
      "epoch": "2026-04-06T06:27:20.755008Z",
      "apogee_km": 347.15208019253623,
      "perigee_km": 324.58402644660964,
      "latitude_deg": 2.0309889630819595e-05,
      "longitude_deg": 125.2624678312259,
      "height_km": 325.5223221384883,
      "semi_major_axis_km": 6714.005053319573,
      "eccentricity": 0.00168067,
      "inclination_deg": 53.1594,
      "raan_deg": 56.6616,
      "arg_perigee_deg": 356.6964,
      "mean_anomaly_deg": 3.3944,
      "mean_motion_rev_day": 15.78084544
    },
    {
      "epoch": "2026-04-07T03:46:47.089344Z",
      "apogee_km": 344.36787022981116,
      "perigee_km": 343.2571352939749,
      "latitude_deg": 2.2699059781106566e-05,
      "longitude_deg": 160.11309612271378,
      "height_km": 344.76896260673016,
      "semi_major_axis_km": 6721.949502761893,
      "eccentricity": 8.262e-05,
      "inclination_deg": 53.16,
      "raan_deg": 52.2477,
      "arg_perigee_deg": 94.1595,
      "mean_anomaly_deg": 265.952,
      "mean_motion_rev_day": 15.75287742
    },
    {
      "epoch": "2026-04-08T14:00:04.999680Z",
      "apogee_km": 344.77285865130034,
      "perigee_km": 343.22959015774177,
      "latitude_deg": 7.2685619927919145,
      "longitude_deg": 172.84444791952393,
      "height_km": 344.35363940745293,
      "semi_major_axis_km": 6722.138224404521,
      "eccentricity": 0.00011479,
      "inclination_deg": 53.1588,
      "raan_deg": 45.1617,
      "arg_perigee_deg": 74.324,
      "mean_anomaly_deg": 96.5224,
      "mean_motion_rev_day": 15.75221404
    },
    {
      "epoch": "2026-04-09T16:00:01.999584Z",
      "apogee_km": 344.64498651324993,
      "perigee_km": 343.1661371496457,
      "latitude_deg": -14.149835423140303,
      "longitude_deg": 152.68300797027504,
      "height_km": 348.0209706323993,
      "semi_major_axis_km": 6722.0425618314475,
      "eccentricity": 0.00011,
      "inclination_deg": 53.1589,
      "raan_deg": 39.7773,
      "arg_perigee_deg": 83.1629,
      "mean_anomaly_deg": 114.4066,
      "mean_motion_rev_day": 15.7525503
    },
    {
      "epoch": "2026-04-10T12:28:59.517120Z",
      "apogee_km": 345.3841761725362,
      "perigee_km": 342.146907908289,
      "latitude_deg": 5.960094696456538e-05,
      "longitude_deg": 9.535458497713677,
      "height_km": 344.34766477035953,
      "semi_major_axis_km": 6721.902542040412,
      "eccentricity": 0.0002408,
      "inclination_deg": 53.1593,
      "raan_deg": 35.5362,
      "arg_perigee_deg": 78.1704,
      "mean_anomaly_deg": 281.9587,
      "mean_motion_rev_day": 15.7530425
    },
    {
      "epoch": "2026-04-11T18:55:43.696416Z",
      "apogee_km": 344.83102351836806,
      "perigee_km": 340.98524149354853,
      "latitude_deg": -2.8449944618871594e-06,
      "longitude_deg": -94.705027378811,
      "height_km": 345.48929446137805,
      "semi_major_axis_km": 6721.045132505958,
      "eccentricity": 0.0002861,
      "inclination_deg": 53.1586,
      "raan_deg": 29.2302,
      "arg_perigee_deg": 210.169,
      "mean_anomaly_deg": 149.9166,
      "mean_motion_rev_day": 15.75605704
    },
    {
      "epoch": "2026-04-13T01:23:29.619744Z",
      "apogee_km": 344.65561273171716,
      "perigee_km": 343.2712633675055,
      "latitude_deg": 7.632935834708794e-06,
      "longitude_deg": 160.7951714682986,
      "height_km": 344.9843729528496,
      "semi_major_axis_km": 6722.1004380496115,
      "eccentricity": 0.00010297,
      "inclination_deg": 53.1594,
      "raan_deg": 22.9228,
      "arg_perigee_deg": 98.7335,
      "mean_anomaly_deg": 261.3802,
      "mean_motion_rev_day": 15.75234686
    },
    {
      "epoch": "2026-04-14T20:01:37.555680Z",
      "apogee_km": 344.49393673575014,
      "perigee_km": 343.2275123644449,
      "latitude_deg": -1.6152612903514986e-05,
      "longitude_deg": -129.3194901553911,
      "height_km": 344.7777555652699,
      "semi_major_axis_km": 6721.997724550098,
      "eccentricity": 9.42e-05,
      "inclination_deg": 53.1586,
      "raan_deg": 14.0922,
      "arg_perigee_deg": 90.1052,
      "mean_anomaly_deg": 270.0076,
      "mean_motion_rev_day": 15.75270791
    },
    {
      "epoch": "2026-04-15T05:09:47.860128Z",
      "apogee_km": 344.44725064919476,
      "perigee_km": 343.26243236721166,
      "latitude_deg": -1.9439403310566487e-05,
      "longitude_deg": 91.37036265270787,
      "height_km": 344.76157616104797,
      "semi_major_axis_km": 6721.991841508203,
      "eccentricity": 8.813e-05,
      "inclination_deg": 53.1594,
      "raan_deg": 12.2002,
      "arg_perigee_deg": 89.1002,
      "mean_anomaly_deg": 271.0119,
      "mean_motion_rev_day": 15.75272859
    }
  ]
}